FENGYUN 1C DEB          
1 30900U 99025AYN 17339.64816972  .00000911  00000-0  52216-3 0  9993
2 30900  99.3320 128.6289 0076178  54.2481 306.5742 14.10686442552251
